GLOBALSTAR M035         
1 25851U 99037A   24305.18749837 -.00000041  00000+0  83770-3 0  9993
2 25851  51.9933 205.6558 0013803 335.4898 195.1453 11.04533826 70951
GLOBALSTAR M032         
1 25852U 99037B   24305.57387677 -.00000188  00000+0 -39053-2 0  9994
2 25852  51.9979  45.7575 0011278 142.8047 217.3536 11.19060832109190
GLOBALSTAR M051         
1 25853U 99037C   24305.20865776 -.00000101  00000+0 -70548-3 0  9996
2 25853  51.9789 233.2728 0001115 127.0270 233.0643 11.42199394106223
GLOBALSTAR M030         
1 25854U 99037D   24305.54539256 -.00000099  00000+0 -50377-3 0  9999
2 25854  51.9896  53.1009 0003542   7.6019 352.4851 11.55102803123627
GLOBALSTAR M048         
1 25872U 99041A   24305.60541774 -.00000018  00000+0  14073-2 0  9991
2 25872  51.9336 158.5129 0013765 144.1727 249.2485 11.33851387 99059
GLOBALSTAR M026         
1 25873U 99041B   24305.50892907 -.00000115  00000+0 -18580-2 0  9994
2 25873  52.0033 325.3019 0001190 228.7009 302.4571 11.06828435123165
GLOBALSTAR M043         
1 25874U 99041C   24305.37552889 -.00000017  00000+0  15088-2 0  9992
2 25874  51.9397 257.5837 0012784 284.4478 247.9801 11.25685705 97106
GLOBALSTAR M028         
1 25875U 99041D   24305.56866108  .00000023  00000+0  79248-3 0  9991
2 25875  51.9600 154.7594 0062592 295.4728  63.9667 12.50568948161571
